[{"OBJECT_NAME":"STARLINK-4800","OBJECT_ID":"2022-114AN","EPOCH":"2025-12-23T03:35:53.523456","MEAN_MOTION":15.08848357,"ECCENTRICITY":0.00016403,"INCLINATION":53.2167,"RA_OF_ASC_NODE":267.9554,"ARG_OF_PERICENTER":84.2521,"MEAN_ANOMALY":275.8658,"EPHEMERIS_TYPE":0,"CLASSIFICATION_TYPE":"U","NORAD_CAT_ID":53854,"ELEMENT_SET_NO":999,"REV_AT_EPOCH":18155,"BSTAR":-1.2727805e-5,"MEAN_MOTION_DOT":-4.91e-6,"MEAN_MOTION_DDOT":0},{"OBJECT_NAME":"STARLINK-4703","OBJECT_ID":"2022-114AP","EPOCH":"2025-12-23T04:07:40.439712","MEAN_MOTION":15.08836695,"ECCENTRICITY":0.00018378,"INCLINATION":53.2182,"RA_OF_ASC_NODE":277.3657,"ARG_OF_PERICENTER":101.0044,"MEAN_ANOMALY":259.1155,"EPHEMERIS_TYPE":0,"CLASSIFICATION_TYPE":"U","NORAD_CAT_ID":53855,"ELEMENT_SET_NO":999,"REV_AT_EPOCH":18142,"BSTAR":-1.159826e-5,"MEAN_MOTION_DOT":-4.73e-6,"MEAN_MOTION_DDOT":0},{"OBJECT_NAME":"STARLINK-4795","OBJECT_ID":"2022-114AQ","EPOCH":"2025-12-23T04:50:04.754688","MEAN_MOTION":15.08832358,"ECCENTRICITY":0.00014584,"INCLINATION":53.2176,"RA_OF_ASC_NODE":267.5742,"ARG_OF_PERICENTER":92.99,"MEAN_ANOMALY":267.1259,"EPHEMERIS_TYPE":0,"CLASSIFICATION_TYPE":"U","NORAD_CAT_ID":53856,"ELEMENT_SET_NO":999,"REV_AT_EPOCH":18156,"BSTAR":5.6981622e-5,"MEAN_MOTION_DOT":6.19e-6,"MEAN_MOTION_DDOT":0},{"OBJECT_NAME":"STARLINK-4809","OBJECT_ID":"2022-114AR","EPOCH":"2025-12-23T02:09:40.737312","MEAN_MOTION":15.08836806,"ECCENTRICITY":0.00013487,"INCLINATION":53.2176,"RA_OF_ASC_NODE":277.5664,"ARG_OF_PERICENTER":88.3507,"MEAN_ANOMALY":271.764,"EPHEMERIS_TYPE":0,"CLASSIFICATION_TYPE":"U","NORAD_CAT_ID":53857,"ELEMENT_SET_NO":999,"REV_AT_EPOCH":18141,"BSTAR":-0.0001680612,"MEAN_MOTION_DOT":-2.961e-5,"MEAN_MOTION_DDOT":0},{"OBJECT_NAME":"STARLINK-4798","OBJECT_ID":"2022-114AS","EPOCH":"2025-12-23T03:30:35.904096","MEAN_MOTION":15.08843496,"ECCENTRICITY":0.00014737,"INCLINATION":53.2157,"RA_OF_ASC_NODE":267.9336,"ARG_OF_PERICENTER":80.9045,"MEAN_ANOMALY":279.2114,"EPHEMERIS_TYPE":0,"CLASSIFICATION_TYPE":"U","NORAD_CAT_ID":53858,"ELEMENT_SET_NO":999,"REV_AT_EPOCH":18155,"BSTAR":0.00019511007,"MEAN_MOTION_DOT":2.819e-5,"MEAN_MOTION_DDOT":0},{"OBJECT_NAME":"STARLINK-4790","OBJECT_ID":"2022-114AT","EPOCH":"2025-12-23T03:53:39.759072","MEAN_MOTION":15.08859723,"ECCENTRICITY":0.00015607,"INCLINATION":53.2196,"RA_OF_ASC_NODE":272.3223,"ARG_OF_PERICENTER":105.1034,"MEAN_ANOMALY":255.0131,"EPHEMERIS_TYPE":0,"CLASSIFICATION_TYPE":"U","NORAD_CAT_ID":53859,"ELEMENT_SET_NO":999,"REV_AT_EPOCH":18149,"BSTAR":0.00021616144,"MEAN_MOTION_DOT":3.156e-5,"MEAN_MOTION_DDOT":0},{"OBJECT_NAME":"STARLINK-4799","OBJECT_ID":"2022-114AU","EPOCH":"2025-12-23T03:19:59.529216","MEAN_MOTION":15.08837153,"ECCENTRICITY":0.00015363,"INCLINATION":53.2177,"RA_OF_ASC_NODE":267.8879,"ARG_OF_PERICENTER":85.7316,"MEAN_ANOMALY":274.3852,"EPHEMERIS_TYPE":0,"CLASSIFICATION_TYPE":"U","NORAD_CAT_ID":53860,"ELEMENT_SET_NO":999,"REV_AT_EPOCH":18131,"BSTAR":5.3993123e-5,"MEAN_MOTION_DOT":5.71e-6,"MEAN_MOTION_DDOT":0},{"OBJECT_NAME":"STARLINK-4781","OBJECT_ID":"2022-114AV","EPOCH":"2025-12-23T06:36:02.647296","MEAN_MOTION":15.08844785,"ECCENTRICITY":0.00014377,"INCLINATION":53.2162,"RA_OF_ASC_NODE":267.3197,"ARG_OF_PERICENTER":94.099,"MEAN_ANOMALY":266.0166,"EPHEMERIS_TYPE":0,"CLASSIFICATION_TYPE":"U","NORAD_CAT_ID":53861,"ELEMENT_SET_NO":999,"REV_AT_EPOCH":18157,"BSTAR":-2.6240005e-5,"MEAN_MOTION_DOT":-7.06e-6,"MEAN_MOTION_DDOT":0},{"OBJECT_NAME":"STARLINK-4788","OBJECT_ID":"2022-114AX","EPOCH":"2025-12-23T04:44:45.955968","MEAN_MOTION":15.08834919,"ECCENTRICITY":0.0001503,"INCLINATION":53.2161,"RA_OF_ASC_NODE":267.5447,"ARG_OF_PERICENTER":94.9237,"MEAN_ANOMALY":265.1927,"EPHEMERIS_TYPE":0,"CLASSIFICATION_TYPE":"U","NORAD_CAT_ID":53863,"ELEMENT_SET_NO":999,"REV_AT_EPOCH":18156,"BSTAR":2.0868509e-5,"MEAN_MOTION_DOT":4.4e-7,"MEAN_MOTION_DDOT":0},{"OBJECT_NAME":"STARLINK-4779","OBJECT_ID":"2022-114AY","EPOCH":"2025-12-23T03:41:04.827840","MEAN_MOTION":15.08837311,"ECCENTRICITY":0.00017281,"INCLINATION":53.2198,"RA_OF_ASC_NODE":267.263,"ARG_OF_PERICENTER":67.8994,"MEAN_ANOMALY":292.2182,"EPHEMERIS_TYPE":0,"CLASSIFICATION_TYPE":"U","NORAD_CAT_ID":53864,"ELEMENT_SET_NO":999,"REV_AT_EPOCH":18156,"BSTAR":5.1454471e-5,"MEAN_MOTION_DOT":5.31e-6,"MEAN_MOTION_DDOT":0},{"OBJECT_NAME":"STARLINK-4762","OBJECT_ID":"2022-114BA","EPOCH":"2025-12-23T01:52:34.666464","MEAN_MOTION":15.08833234,"ECCENTRICITY":0.00014153,"INCLINATION":53.2166,"RA_OF_ASC_NODE":248.2496,"ARG_OF_PERICENTER":83.7487,"MEAN_ANOMALY":276.3667,"EPHEMERIS_TYPE":0,"CLASSIFICATION_TYPE":"U","NORAD_CAT_ID":53866,"ELEMENT_SET_NO":999,"REV_AT_EPOCH":18182,"BSTAR":-5.9989291e-5,"MEAN_MOTION_DOT":-1.242e-5,"MEAN_MOTION_DDOT":0},{"OBJECT_NAME":"STARLINK-4793","OBJECT_ID":"2022-114BB","EPOCH":"2025-12-21T22:33:46.944288","MEAN_MOTION":15.08836653,"ECCENTRICITY":0.00013508,"INCLINATION":53.2168,"RA_OF_ASC_NODE":263.2159,"ARG_OF_PERICENTER":95.7608,"MEAN_ANOMALY":264.3538,"EPHEMERIS_TYPE":0,"CLASSIFICATION_TYPE":"U","NORAD_CAT_ID":53867,"ELEMENT_SET_NO":999,"REV_AT_EPOCH":18151,"BSTAR":0.00021487178,"MEAN_MOTION_DOT":3.133e-5,"MEAN_MOTION_DDOT":0},{"OBJECT_NAME":"STARLINK-4789","OBJECT_ID":"2022-114BC","EPOCH":"2025-12-22T20:23:57.900480","MEAN_MOTION":15.08851837,"ECCENTRICITY":0.0001974,"INCLINATION":53.22,"RA_OF_ASC_NODE":248.9773,"ARG_OF_PERICENTER":87.3562,"MEAN_ANOMALY":272.7656,"EPHEMERIS_TYPE":0,"CLASSIFICATION_TYPE":"U","NORAD_CAT_ID":53868,"ELEMENT_SET_NO":999,"REV_AT_EPOCH":18179,"BSTAR":-0.00013982434,"MEAN_MOTION_DOT":-2.514e-5,"MEAN_MOTION_DDOT":0},{"OBJECT_NAME":"STARLINK-4810","OBJECT_ID":"2022-114BD","EPOCH":"2025-12-23T03:53:03.897024","MEAN_MOTION":15.0882402,"ECCENTRICITY":0.00015574,"INCLINATION":53.2175,"RA_OF_ASC_NODE":257.3375,"ARG_OF_PERICENTER":91.3871,"MEAN_ANOMALY":268.73,"EPHEMERIS_TYPE":0,"CLASSIFICATION_TYPE":"U","NORAD_CAT_ID":53869,"ELEMENT_SET_NO":999,"REV_AT_EPOCH":18170,"BSTAR":-0.00010673651,"MEAN_MOTION_DOT":-1.986e-5,"MEAN_MOTION_DDOT":0},{"OBJECT_NAME":"STARLINK-4732","OBJECT_ID":"2022-114BE","EPOCH":"2025-12-23T04:26:11.316480","MEAN_MOTION":15.08853177,"ECCENTRICITY":0.00013609,"INCLINATION":53.2166,"RA_OF_ASC_NODE":247.4992,"ARG_OF_PERICENTER":90.7986,"MEAN_ANOMALY":269.3162,"EPHEMERIS_TYPE":0,"CLASSIFICATION_TYPE":"U","NORAD_CAT_ID":53870,"ELEMENT_SET_NO":999,"REV_AT_EPOCH":18184,"BSTAR":1.0057193e-5,"MEAN_MOTION_DOT":-1.28e-6,"MEAN_MOTION_DDOT":0},{"OBJECT_NAME":"STARLINK-4740","OBJECT_ID":"2022-114BF","EPOCH":"2025-12-23T02:08:22.190208","MEAN_MOTION":15.08869522,"ECCENTRICITY":0.00015865,"INCLINATION":53.2141,"RA_OF_ASC_NODE":247.6129,"ARG_OF_PERICENTER":94.4293,"MEAN_ANOMALY":265.688,"EPHEMERIS_TYPE":0,"CLASSIFICATION_TYPE":"U","NORAD_CAT_ID":53871,"ELEMENT_SET_NO":999,"REV_AT_EPOCH":18183,"BSTAR":0.00065411206,"MEAN_MOTION_DOT":0.00010146,"MEAN_MOTION_DDOT":0}]
