STARLINK-4800           
1 53854U 22114AN  25357.14992504 -.00000491  00000+0 -12728-4 0  9990
2 53854  53.2167 267.9554 0001640  84.2521 275.8658 15.08848357181552
STARLINK-4703           
1 53855U 22114AP  25357.17199583 -.00000473  00000+0 -11598-4 0  9994
2 53855  53.2182 277.3657 0001837 101.0044 259.1155 15.08836695181420
STARLINK-4795           
1 53856U 22114AQ  25357.20144392  .00000619  00000+0  56982-4 0  9993
2 53856  53.2176 267.5742 0001458  92.9900 267.1259 15.08832358181569
STARLINK-4809           
1 53857U 22114AR  25357.09005483 -.00002961  00000+0 -16806-3 0  9992
2 53857  53.2176 277.5664 0001348  88.3507 271.7640 15.08836806181415
STARLINK-4798           
1 53858U 22114AS  25357.14624889  .00002819  00000+0  19511-3 0  9992
2 53858  53.2157 267.9336 0001473  80.9045 279.2114 15.08843496181555
STARLINK-4790           
1 53859U 22114AT  25357.16226573  .00003156  00000+0  21616-3 0  9997
2 53859  53.2196 272.3223 0001560 105.1034 255.0131 15.08859723181493
STARLINK-4799           
1 53860U 22114AU  25357.13888344  .00000571  00000+0  53993-4 0  9998
2 53860  53.2177 267.8879 0001536  85.7316 274.3852 15.08837153181317
STARLINK-4781           
1 53861U 22114AV  25357.27503064 -.00000706  00000+0 -26240-4 0  9994
2 53861  53.2162 267.3197 0001437  94.0990 266.0166 15.08844785181574
STARLINK-4788           
1 53863U 22114AX  25357.19775412  .00000044  00000+0  20869-4 0  9999
2 53863  53.2161 267.5447 0001503  94.9237 265.1927 15.08834919181564
STARLINK-4779           
1 53864U 22114AY  25357.15352810  .00000531  00000+0  51454-4 0  9994
2 53864  53.2198 267.2630 0001728  67.8994 292.2182 15.08837311181567
STARLINK-4762           
1 53866U 22114BA  25357.07817901 -.00001242  00000+0 -59989-4 0  9997
2 53866  53.2166 248.2496 0001415  83.7487 276.3667 15.08833234181820
STARLINK-4793           
1 53867U 22114BB  25355.94012667  .00003133  00000+0  21487-3 0  9998
2 53867  53.2168 263.2159 0001350  95.7608 264.3538 15.08836653181510
STARLINK-4789           
1 53868U 22114BC  25356.84997570 -.00002514  00000+0 -13982-3 0  9999
2 53868  53.2200 248.9773 0001974  87.3562 272.7656 15.08851837181793
STARLINK-4810           
1 53869U 22114BD  25357.16185066 -.00001986  00000+0 -10674-3 0  9992
2 53869  53.2175 257.3375 0001557  91.3871 268.7300 15.08824020181708
STARLINK-4732           
1 53870U 22114BE  25357.18485320 -.00000128  00000+0  10057-4 0  9994
2 53870  53.2166 247.4992 0001360  90.7986 269.3162 15.08853177181840
STARLINK-4740           
1 53871U 22114BF  25357.08914572  .00010146  00000+0  65411-3 0  9993
2 53871  53.2141 247.6129 0001586  94.4293 265.6880 15.08869522181836
